{
  "links" : {
    "next" : "https://api.nasa.gov/neo/rest/v1/feed?start_date=1995-07-23&end_date=1995-07-23&detailed=true&api_key=t0TVs3DtDT2H8Oy2Zy8m2eVrNsAVKAexjcZXUckd",
    "prev" : "https://api.nasa.gov/neo/rest/v1/feed?start_date=1995-07-21&end_date=1995-07-21&detailed=true&api_key=t0TVs3DtDT2H8Oy2Zy8m2eVrNsAVKAexjcZXUckd",
    "self" : "https://api.nasa.gov/neo/rest/v1/feed?start_date=1995-07-22&end_date=1995-07-22&detailed=true&api_key=t0TVs3DtDT2H8Oy2Zy8m2eVrNsAVKAexjcZXUckd"
  },
  "element_count" : 4,
  "near_earth_objects" : {
    "1995-07-22" : [ {
      "links" : {
        "self" : "https://api.nasa.gov/neo/rest/v1/neo/2212359?api_key=t0TVs3DtDT2H8Oy2Zy8m2eVrNsAVKAexjcZXUckd"
      },
      "neo_reference_id" : "2212359",
      "name" : "212359 (2006 EV52)",
      "nasa_jpl_url" : "http://ssd.jpl.nasa.gov/sbdb.cgi?sstr=2212359",
      "absolute_magnitude_h" : 16.7,
      "estimated_diameter" : {
        "kilometers" : {
          "estimated_diameter_min" : 1.214940408,
          "estimated_diameter_max" : 2.7166893409
        },
        "meters" : {
          "estimated_diameter_min" : 1214.9404079963,
          "estimated_diameter_max" : 2716.6893408911
        },
        "miles" : {
          "estimated_diameter_min" : 0.7549287363,
          "estimated_diameter_max" : 1.6880719724
        },
        "feet" : {
          "estimated_diameter_min" : 3986.0250881707,
          "estimated_diameter_max" : 8913.0230571693
        }
      },
      "is_potentially_hazardous_asteroid" : false,
      "close_approach_data" : [ {
        "close_approach_date" : "1995-07-22",
        "epoch_date_close_approach" : 806396400000,
        "relative_velocity" : {
          "kilometers_per_second" : "20.2917992454",
          "kilometers_per_hour" : "73050.4772834677",
          "miles_per_hour" : "45390.7257320525"
        },
        "miss_distance" : {
          "astronomical" : "0.4068983202",
          "lunar" : "158.2834472656",
          "kilometers" : "60871124",
          "miles" : "37823564"
        },
        "orbiting_body" : "Earth"
      } ],
      "orbital_data" : {
        "orbit_id" : "94",
        "orbit_determination_date" : "2017-04-06 09:25:25",
        "orbit_uncertainty" : "0",
        "minimum_orbit_intersection" : ".256265",
        "jupiter_tisserand_invariant" : "3.427",
        "epoch_osculation" : "2458000.5",
        "eccentricity" : ".707411422929393",
        "semi_major_axis" : "2.016449150650885",
        "inclination" : "15.95128044364067",
        "ascending_node_longitude" : "168.5299865401225",
        "orbital_period" : "1045.873933196462",
        "perihelion_distance" : ".5899899877241765",
        "perihelion_argument" : "167.1005289202966",
        "aphelion_distance" : "3.442908313577593",
        "perihelion_time" : "2458304.369211986131",
        "mean_anomaly" : "255.4052559846539",
        "mean_motion" : ".3442097451456186",
        "equinox" : "J2000"
      }
    }, {
      "links" : {
        "self" : "https://api.nasa.gov/neo/rest/v1/neo/2348314?api_key=t0TVs3DtDT2H8Oy2Zy8m2eVrNsAVKAexjcZXUckd"
      },
      "neo_reference_id" : "2348314",
      "name" : "348314 (2005 BC)",
      "nasa_jpl_url" : "http://ssd.jpl.nasa.gov/sbdb.cgi?sstr=2348314",
      "absolute_magnitude_h" : 17.9,
      "estimated_diameter" : {
        "kilometers" : {
          "estimated_diameter_min" : 0.6991252322,
          "estimated_diameter_max" : 1.5632915441
        },
        "meters" : {
          "estimated_diameter_min" : 699.1252322458,
          "estimated_diameter_max" : 1563.2915440869
        },
        "miles" : {
          "estimated_diameter_min" : 0.4344161447,
          "estimated_diameter_max" : 0.97138403
        },
        "feet" : {
          "estimated_diameter_min" : 2293.7180269613,
          "estimated_diameter_max" : 5128.9094295021
        }
      },
      "is_potentially_hazardous_asteroid" : true,
      "close_approach_data" : [ {
        "close_approach_date" : "1995-07-22",
        "epoch_date_close_approach" : 806396400000,
        "relative_velocity" : {
          "kilometers_per_second" : "15.3422196651",
          "kilometers_per_hour" : "55231.9907943614",
          "miles_per_hour" : "34319.0111688631"
        },
        "miss_distance" : {
          "astronomical" : "0.4432989827",
          "lunar" : "172.4433135986",
          "kilometers" : "66316588",
          "miles" : "41207216"
        },
        "orbiting_body" : "Earth"
      } ],
      "orbital_data" : {
        "orbit_id" : "60",
        "orbit_determination_date" : "2017-04-06 09:23:10",
        "orbit_uncertainty" : "0",
        "minimum_orbit_intersection" : ".0451383",
        "jupiter_tisserand_invariant" : "5.169",
        "epoch_osculation" : "2458000.5",
        "eccentricity" : ".2780787999190192",
        "semi_major_axis" : "1.189569735081815",
        "inclination" : "30.1225406141259",
        "ascending_node_longitude" : "292.4757569846702",
        "orbital_period" : "473.8962656558362",
        "perihelion_distance" : ".8587756107302781",
        "perihelion_argument" : "84.20468860052981",
        "aphelion_distance" : "1.520363859433351",
        "perihelion_time" : "2458067.793321120816",
        "mean_anomaly" : "308.879960955237",
        "mean_motion" : ".759659921569096",
        "equinox" : "J2000"
      }
    }, {
      "links" : {
        "self" : "https://api.nasa.gov/neo/rest/v1/neo/3560054?api_key=t0TVs3DtDT2H8Oy2Zy8m2eVrNsAVKAexjcZXUckd"
      },
      "neo_reference_id" : "3560054",
      "name" : "(2011 FK1)",
      "nasa_jpl_url" : "http://ssd.jpl.nasa.gov/sbdb.cgi?sstr=3560054",
      "absolute_magnitude_h" : 23.7,
      "estimated_diameter" : {
        "kilometers" : {
          "estimated_diameter_min" : 0.0483676488,
          "estimated_diameter_max" : 0.1081533507
        },
        "meters" : {
          "estimated_diameter_min" : 48.3676488219,
          "estimated_diameter_max" : 108.1533506775
        },
        "miles" : {
          "estimated_diameter_min" : 0.0300542543,
          "estimated_diameter_max" : 0.0672033557
        },
        "feet" : {
          "estimated_diameter_min" : 158.6865169607,
          "estimated_diameter_max" : 354.8338390368
        }
      },
      "is_potentially_hazardous_asteroid" : false,
      "close_approach_data" : [ {
        "close_approach_date" : "1995-07-22",
        "epoch_date_close_approach" : 806396400000,
        "relative_velocity" : {
          "kilometers_per_second" : "9.8307494523",
          "kilometers_per_hour" : "35390.6980282703",
          "miles_per_hour" : "21990.4034498439"
        },
        "miss_distance" : {
          "astronomical" : "0.3266999354",
          "lunar" : "127.0862808228",
          "kilometers" : "48873616",
          "miles" : "30368658"
        },
        "orbiting_body" : "Earth"
      } ],
      "orbital_data" : {
        "orbit_id" : "7",
        "orbit_determination_date" : "2017-04-06 08:54:04",
        "orbit_uncertainty" : "6",
        "minimum_orbit_intersection" : ".0752783",
        "jupiter_tisserand_invariant" : "6.424",
        "epoch_osculation" : "2458000.5",
        "eccentricity" : ".222717159391895",
        "semi_major_axis" : ".9253650074475226",
        "inclination" : "13.08284558438967",
        "ascending_node_longitude" : "359.7151698871408",
        "orbital_period" : "325.1382290472969",
        "perihelion_distance" : ".7192703415881505",
        "perihelion_argument" : "330.5650246556428",
        "aphelion_distance" : "1.131459673306895",
        "perihelion_time" : "2458031.558951190881",
        "mean_anomaly" : "325.6108650727421",
        "mean_motion" : "1.107221384132076",
        "equinox" : "J2000"
      }
    }, {
      "links" : {
        "self" : "https://api.nasa.gov/neo/rest/v1/neo/3666783?api_key=t0TVs3DtDT2H8Oy2Zy8m2eVrNsAVKAexjcZXUckd"
      },
      "neo_reference_id" : "3666783",
      "name" : "(2014 FO47)",
      "nasa_jpl_url" : "http://ssd.jpl.nasa.gov/sbdb.cgi?sstr=3666783",
      "absolute_magnitude_h" : 20.3,
      "estimated_diameter" : {
        "kilometers" : {
          "estimated_diameter_min" : 0.2315021222,
          "estimated_diameter_max" : 0.5176544822
        },
        "meters" : {
          "estimated_diameter_min" : 231.5021222103,
          "estimated_diameter_max" : 517.6544821978
        },
        "miles" : {
          "estimated_diameter_min" : 0.1438487052,
          "estimated_diameter_max" : 0.3216554833
        },
        "feet" : {
          "estimated_diameter_min" : 759.5214226325,
          "estimated_diameter_max" : 1698.3415313737
        }
      },
      "is_potentially_hazardous_asteroid" : true,
      "close_approach_data" : [ {
        "close_approach_date" : "1995-07-22",
        "epoch_date_close_approach" : 806396400000,
        "relative_velocity" : {
          "kilometers_per_second" : "15.4140722175",
          "kilometers_per_hour" : "55490.6599830742",
          "miles_per_hour" : "34479.7381433718"
        },
        "miss_distance" : {
          "astronomical" : "0.4815542488",
          "lunar" : "187.3246002197",
          "kilometers" : "72039488",
          "miles" : "44763264"
        },
        "orbiting_body" : "Earth"
      } ],
      "orbital_data" : {
        "orbit_id" : "13",
        "orbit_determination_date" : "2017-04-06 08:41:49",
        "orbit_uncertainty" : "2",
        "minimum_orbit_intersection" : ".0449381",
        "jupiter_tisserand_invariant" : "7.609",
        "epoch_osculation" : "2458000.5",
        "eccentricity" : ".2710734108752346",
        "semi_major_axis" : ".7521531361361501",
        "inclination" : "19.1976308267857",
        "ascending_node_longitude" : "358.6587800949906",
        "orbital_period" : "238.2636732212871",
        "perihelion_distance" : ".5482644200232192",
        "perihelion_argument" : "347.4623459991788",
        "aphelion_distance" : ".956041852249081",
        "perihelion_time" : "2458042.556090055992",
        "mean_anomaly" : "296.4561445080394",
        "mean_motion" : "1.510931125726625",
        "equinox" : "J2000"
      }
    } ]
  }
}